[{"OBJECT_NAME":"SPARK 2","OBJECT_ID":"2016-081D","EPOCH":"2026-03-09T21:43:21.567936","MEAN_MOTION":14.59036805,"ECCENTRICITY":0.00241409,"INCLINATION":98.5438,"RA_OF_ASC_NODE":55.7698,"ARG_OF_PERICENTER":270.8992,"MEAN_ANOMALY":88.944,"EPHEMERIS_TYPE":0,"CLASSIFICATION_TYPE":"U","NORAD_CAT_ID":41901,"ELEMENT_SET_NO":999,"REV_AT_EPOCH":48964,"BSTAR":0.00022054708,"MEAN_MOTION_DOT":9.9e-6,"MEAN_MOTION_DDOT":0},{"OBJECT_NAME":"THOR ABLESTAR DEB","OBJECT_ID":"1961-015EZ","EPOCH":"2026-03-09T23:10:15.064896","MEAN_MOTION":14.56833631,"ECCENTRICITY":0.00483564,"INCLINATION":66.7679,"RA_OF_ASC_NODE":319.2325,"ARG_OF_PERICENTER":326.168,"MEAN_ANOMALY":33.6349,"EPHEMERIS_TYPE":0,"CLASSIFICATION_TYPE":"U","NORAD_CAT_ID":463,"ELEMENT_SET_NO":999,"REV_AT_EPOCH":35467,"BSTAR":0.00081403762,"MEAN_MOTION_DOT":3.615e-5,"MEAN_MOTION_DDOT":0}]
